[{"OBJECT_NAME":"YAOGAN-30 04A","OBJECT_ID":"2017-085A","EPOCH":"2026-03-10T00:12:03.633696","MEAN_MOTION":15.02145245,"ECCENTRICITY":0.00047902,"INCLINATION":34.9971,"RA_OF_ASC_NODE":34.3088,"ARG_OF_PERICENTER":351.1621,"MEAN_ANOMALY":8.9003,"EPHEMERIS_TYPE":0,"CLASSIFICATION_TYPE":"U","NORAD_CAT_ID":43081,"ELEMENT_SET_NO":999,"REV_AT_EPOCH":44779,"BSTAR":0.00033587992,"MEAN_MOTION_DOT":4.482e-5,"MEAN_MOTION_DDOT":0},{"OBJECT_NAME":"STARLINK-5725","OBJECT_ID":"2023-020AN","EPOCH":"2026-03-09T20:53:22.959168","MEAN_MOTION":15.03742698,"ECCENTRICITY":0.00022746,"INCLINATION":43.0064,"RA_OF_ASC_NODE":350.9238,"ARG_OF_PERICENTER":357.3918,"MEAN_ANOMALY":2.6913,"EPHEMERIS_TYPE":0,"CLASSIFICATION_TYPE":"U","NORAD_CAT_ID":55605,"ELEMENT_SET_NO":999,"REV_AT_EPOCH":16909,"BSTAR":0.0082125021,"MEAN_MOTION_DOT":0.00116267,"MEAN_MOTION_DDOT":0}]
